STARLINK-1008           
1 44714U 19074B   26080.51885660  .00012617  00000+0  41507-3 0  9992
2 44714  53.1578 123.7039 0002085  70.0868 290.0358 15.31899912350687
STARLINK-1012           
1 44718U 19074F   26081.28842907  .00028449  00000+0  93900-3 0  9992
2 44718  53.1606 120.2456 0002483  50.7729 309.3492 15.31215968350799
STARLINK-1017           
1 44723U 19074L   26081.25949161  .00013541  00000+0  54504-3 0  9999
2 44723  53.0495 113.4151 0002564  55.4952 304.6287 15.25186296350880
STARLINK-1019           
1 44724U 19074M   26081.23947245  .00174191  00000+0  71905-3 0  9992
2 44724  53.0412  73.4345 0000177 100.5556 259.5487 15.84890080351430
STARLINK-1020           
1 44725U 19074N   26080.88206270  .00026259  00000+0  88695-3 0  9994
2 44725  53.1601 147.2101 0001558  72.4879 287.6292 15.30513560350375
STARLINK-1031           
1 44736U 19074Z   26081.25002315  .00337466  57617-4  74040-3 0  9997
2 44736  53.0359  55.6892 0004400  63.0807 352.5501 15.97628268  6010
STARLINK-1036           
1 44741U 19074AE  26080.29413517  .00099450  00000+0  12844-2 0  9996
2 44741  53.0479 132.2645 0004553 348.7484  11.3424 15.58184460350531
STARLINK-1039           
1 44744U 19074AH  26080.49880627  .00030990  00000+0  13209-2 0  9991
2 44744  53.0547 160.7709 0001245 246.8641 113.2224 15.22707739350154
STARLINK-1042           
1 44747U 19074AL  26081.16122139  .00032973  00000+0  57476-3 0  9994
2 44747  53.0451  34.9270 0001802 125.2013 234.9165 15.50452488352008
STARLINK-1043           
1 44748U 19074AM  26080.87654601  .00035885  00000+0  54102-3 0  9994
2 44748  53.0506 135.6616 0002391  78.8174 281.3105 15.54456380350544
STARLINK-1046           
1 44751U 19074AQ  26080.90693714  .00052285  00000+0  10934-2 0  9997
2 44751  53.0519 152.7365 0002390 238.6615 121.4157 15.44985082350308
STARLINK-1047           
1 44752U 19074AR  26081.27682735  .00012295  00000+0  39316-3 0  9993
2 44752  53.0698  87.1915 0001502 278.7852  81.2979 15.32838756351275